TDRS 3                  
1 19548U 88091B   20026.36486623 -.00000303  00000-0  00000-0 0  9998
2 19548  14.2455 358.7075 0039701 317.4689 251.0761  1.00282146102002
HST                     
1 20580U 90037B   20026.87565446  .00000310  00000-0  78428-5 0  9997
2 20580  28.4682 182.6466 0002733   0.4400 133.9542 15.09329487434492
TDRS 5                  
1 21639U 91054B   20026.77360314  .00000080  00000-0  00000+0 0  9998
2 21639  14.2910  11.9818 0024869 352.9546 231.4009  1.00269455104300
TDRS 6                  
1 22314U 93003B   20026.34533227 -.00000299  00000-0  00000-0 0  9997
2 22314  14.0028  15.0961 0004436  45.0126 143.1928  1.00279096 99040
TDRS 7                  
1 23613U 95035B   20026.03624074 -.00000203  00000-0  00000-0 0  9999
2 23613  14.2209   5.7948 0030030  18.5315 198.1484  1.00267651 89849
ISS (ZARYA)             
1 25544U 98067A   20027.32115638 -.00041515  00000-0 -74611-3 0  9990
2 25544  51.6455 330.4025 0005455 198.0096 298.5344 15.49107582210029
LANDSAT 7               
1 25682U 99020A   20027.20425177  .00000001  00000-0  10021-4 0  9991
2 25682  98.1025  93.9399 0001016  81.2849 278.8479 14.57164748105527
TERRA                   
1 25994U 99068A   20027.23056983 -.00000012  00000-0  74886-5 0  9990
2 25994  98.2067 103.4737 0001550 106.8259 253.3131 14.57087761 69605
TDRS 8                  
1 26388U 00034A   20027.04475036 -.00000239  00000-0  00000+0 0  9998
2 26388   9.0098  48.5415 0017285 295.5880 247.1650  1.00269293 71771
TIMED                   
1 26998U 01055B   20027.08313079  .00000060  00000-0  10616-4 0  9991
2 26998  74.0706 216.6086 0001823 300.4651  59.6350 14.88163088983366
TDRS 9                  
1 27389U 02011A   20027.11091562 -.00000292  00000-0  00000+0 0  9992
2 27389   7.1971  68.7635 0025321 268.7513 125.8420  1.00264541 67048
AQUA                    
1 27424U 02022A   20026.84183880  .00000072  00000-0  26132-4 0  9992
2 27424  98.2204 329.4832 0002850  74.6208 305.9313 14.57107179943157
TDRS 10                 
1 27566U 02055A   20026.81421140  .00000086  00000-0  00000+0 0  9992
2 27566   6.6596  54.2803 0008669 273.1602 280.2499  1.00279559 62822
SORCE                   
1 27651U 03004A   20027.12516769 -.00000015  00000-0  12693-4 0  9998
2 27651  39.9966  43.7245 0022335  99.6609 260.6705 14.89073781923013
AURA                    
1 28376U 04026A   20026.43156299  .00000057  00000-0  22680-4 0  9991
2 28376  98.2209 331.2384 0001376  74.7808 285.3542 14.57109737826091
SWIFT                   
1 28485U 04047A   20026.87776641  .00000757  00000-0  21255-4 0  9996
2 28485  20.5571 302.9213 0011249  54.8746 305.2741 15.04526275831999
THEMIS A                
1 30580U 07004A   20026.21505373 -.00000145  00000-0  00000+0 0  9993
2 30580  12.6214  60.2145 8406725   2.0957   0.2866  0.87836825 45443
THEMIS D                
1 30797U 07004D   20014.68741381 -.00000274  00000-0  00000+0 0  9995
2 30797  11.5471  37.7923 8605898  25.4516 359.5864  0.71866340 44930
THEMIS E                
1 30798U 07004E   20026.91047677 -.00000173  00000-0  00000+0 0  9990
2 30798  10.5530  48.1672 8443651  18.7461 359.6017  0.81732295 45433
AIM                     
1 31304U 07015A   20026.76548839  .00000506  00000-0  32345-4 0  9996
2 31304  97.9270 264.0426 0006336 118.3254 241.8616 15.13398261699105
FGRST (GLAST)           
1 33053U 08029A   20026.29579245  .00000463  00000-0  96887-5 0  9992
2 33053  25.5839 355.2443 0012545 149.2439 210.8833 15.11295955641653
WISE                    
1 36119U 09071A   20026.37356280  .00000509  00000-0  20142-4 0  9998
2 36119  97.3472  64.4044 0003258 142.7308 217.4159 15.29906109561923
TDRS 11                 
1 39070U 13004A   20026.59824884  .00000078  00000-0  00000-0 0  9990
2 39070   4.0394 331.0984 0004104 353.9678 201.3768  1.00265862 25586
TDRS 12                 
1 39504U 14004A   20026.34129465 -.00000271  00000-0  00000+0 0  9994
2 39504   4.8332 337.5752 0002037 266.4493 322.8384  1.00278749 22047
GPM-CORE                
1 39574U 14009C   20027.13780708  .00001589  00000-0  27012-4 0  9996
2 39574  65.0048 275.6298 0011678 288.2333  71.7542 15.55976851335913
MMS 1                   
1 40482U 15011A   20019.61597222 -.00002196  00000-0  00000-0 0  9991
2 40482  23.6146 120.3119 8799372  17.6135 156.6419  0.28570819 10820
MMS 2                   
1 40483U 15011B   20016.77099537 -.00001667  00000-0  00000+0 0  9993
2 40483  23.5666 120.3526 8804083  17.5087 224.2985  0.28549439 10756
MMS 3                   
1 40484U 15011C   20016.77789352 -.00001669  00000-0  00000+0 0  9997
2 40484  23.5704 120.3448 8803740  17.5178 225.0162  0.28544429 10753
MMS 4                   
1 40485U 15011D   20016.77783565 -.00001668  00000-0  00000+0 0  9997
2 40485  23.5666 120.3560 8804458  17.5127 224.9837  0.28549406 10754
TDRS 13                 
1 42915U 17047A   20026.81258539 -.00000099  00000-0  00000+0 0  9999
2 42915   5.7910 330.2011 0012867  77.5789 358.8940  1.00272485  8983
JPSS-1                  
1 43013U 17073A   20027.18800055 -.00000009  00000-0  16553-4 0  9991
2 43013  98.7444 327.1840 0001340  70.5645 289.5676 14.19538289113478